{
"type": "FeatureCollection",
"name": "detecciones_lineas",
"crs": { "type": "name", "properties": { "name": "urn:ogc:def:crs:OGC:1.3:CRS84" } },
"features": [
{ "type": "Feature", "properties": { "color": "green", "type": "line" }, "geometry": { "type": "LineString", "coordinates": [ [ -97.888759650364918, 20.440331713539514 ], [ -97.887062164587945, 20.437791083495249 ], [ -97.872633510900272, 20.437876663965273 ], [ -97.869242734554945, 20.432801899641166 ], [ -97.868311776658842, 20.407326427208663 ], [ -97.871143169378868, 20.397112723456861 ], [ -97.870025600799622, 20.366533450148214 ], [ -97.866542931360115, 20.358916980418744 ], [ -97.869522351155879, 20.44044272403206 ] ] } }
]
}
