{
"type": "FeatureCollection",
"name": "detecciones_poligonos",
"crs": { "type": "name", "properties": { "name": "urn:ogc:def:crs:OGC:1.3:CRS84" } },
"features": [
{ "type": "Feature", "properties": { "color": "yellow", "type": "polygon" }, "geometry": { "type": "Polygon", "coordinates": [ [ [ -99.430047753871349, 16.747697612278902 ], [ -99.438968311448164, 16.741702556464137 ], [ -99.445802052796694, 16.729247228023386 ], [ -99.448860121785415, 16.714140019229916 ], [ -99.448250399845961, 16.69919327589059 ], [ -99.438856188811556, 16.679053979666563 ], [ -99.43004507153347, 16.672939080495802 ], [ -99.420256316716433, 16.672487977047698 ], [ -99.410179638946516, 16.679524061372884 ], [ -99.405623160388856, 16.687214466771582 ], [ -99.401494656291291, 16.720054425543218 ], [ -99.408291939902796, 16.737459277792691 ], [ -99.419047541514516, 16.747244535574289 ], [ -99.430047753871349, 16.747697612278902 ] ] ] } },
{ "type": "Feature", "properties": { "color": "yellow", "type": "polygon" }, "geometry": { "type": "Polygon", "coordinates": [ [ [ -99.327343607041854, 16.970969734430025 ], [ -99.332020414960809, 16.968086500496263 ], [ -99.341575632298586, 16.966917066301377 ], [ -99.345318851287104, 16.955753828583973 ], [ -99.34286791732977, 16.940141163374879 ], [ -99.335847395850294, 16.930195841797548 ], [ -99.326935073991251, 16.932296152543888 ], [ -99.318532771860632, 16.946348871861989 ], [ -99.319068401372562, 16.959221376077771 ], [ -99.321537251876862, 16.960996016330661 ], [ -99.321728525662039, 16.965592281484991 ], [ -99.327343607041854, 16.970969734430025 ] ] ] } },
{ "type": "Feature", "properties": { "color": "green", "type": "polygon" }, "geometry": { "type": "Polygon", "coordinates": [ [ [ -99.001559882305244, 16.614072606976407 ], [ -99.005434601540045, 16.611145877774025 ], [ -99.005462076692339, 16.598456123622221 ], [ -99.007550456983964, 16.593808418127384 ], [ -99.018324123498957, 16.59139409334977 ], [ -99.021599827940236, 16.587580067758829 ], [ -99.019079930611326, 16.582275015408712 ], [ -99.007384277582176, 16.576586260656242 ], [ -99.006841316606511, 16.563915693569996 ], [ -98.998287030227573, 16.56441186503443 ], [ -98.998182650218808, 16.575297064962598 ], [ -98.988541587983988, 16.576753314856099 ], [ -98.985361656462615, 16.582366904233687 ], [ -98.987908112728704, 16.588561667570261 ], [ -98.997779964010292, 16.592538436535389 ], [ -98.998439288560419, 16.607901751889489 ], [ -99.001559882305244, 16.614072606976407 ] ] ] } },
{ "type": "Feature", "properties": { "color": "green", "type": "polygon" }, "geometry": { "type": "Polygon", "coordinates": [ [ [ -99.017005743514261, 17.131942753430742 ], [ -99.016851475425156, 17.128367670660271 ], [ -99.01271563226716, 17.124841462836258 ], [ -99.002335205512793, 17.121395562580922 ], [ -99.001821739873293, 17.096380014074956 ], [ -98.999435450727958, 17.093732588329278 ], [ -98.997243022413116, 17.095552892588834 ], [ -98.995630954968632, 17.110762880915757 ], [ -98.99306651905502, 17.117047485286061 ], [ -98.982267727812939, 17.11629429364622 ], [ -98.978501430544128, 17.120801220985076 ], [ -98.983336002827016, 17.127876166929482 ], [ -98.983528919935893, 17.132333753064728 ], [ -99.017005743514261, 17.131942753430742 ] ] ] } }
]
}
